start=new Date('2022-07-26T00:00:00.000Z').valueOf();
sats=[{"NORAD_CAT_ID":"46585","REF_FRAME":"TEME","RCS_SIZE":"LARGE","ECCENTRICITY":"0.00014970","INCLINATION":"53.0572","PERIAPSIS":"546.213","EPOCH":"2022-07-25T17:37:58.647648","OBJECT_ID":"2020-070BF","REV_AT_EPOCH":"10038","MEAN_MOTION":"15.06388261","GP_ID":"208860609","PERIOD":"95.593","COUNTRY_CODE":"US","BSTAR":"0.00002674000000","SITE":"AFETR","LAUNCH_DATE":"2020-10-06","CENTER_NAME":"EARTH","MEAN_ANOMALY":"276.8493","MEAN_MOTION_DOT":"0.00000117","MEAN_ELEMENT_THEORY":"SGP4","RA_OF_ASC_NODE":"335.5895","TLE_LINE2":"2 46585  53.0572 335.5895 0001497  83.2666 276.8493 15.06388261100383","OBJECT_TYPE":"PAYLOAD","FILE":"3521711","ELEMENT_SET_NO":"999","APOAPSIS":"548.286","CLASSIFICATION_TYPE":"U","SEMIMAJOR_AXIS":"6925.385","EPHEMERIS_TYPE":"0","DECAY_DATE":null,"MEAN_MOTION_DDOT":"0.0000000000000","TLE_LINE1":"1 46585U 20070BF  22206.73470657  .00000117  00000-0  26740-4 0  9990","ARG_OF_PERICENTER":"83.2666","OBJECT_NAME":"STARLINK-1736","TIME_SYSTEM":"UTC"},{"CLASSIFICATION_TYPE":"U","APOAPSIS":"548.093","ELEMENT_SET_NO":"999","FILE":"3521711","SEMIMAJOR_AXIS":"6925.346","EPHEMERIS_TYPE":"0","DECAY_DATE":null,"MEAN_ANOMALY":"285.2230","TLE_LINE2":"2 46586  53.0547 335.3453 0001274  74.8900 285.2230 15.06400851100398","OBJECT_TYPE":"PAYLOAD","MEAN_MOTION_DOT":"0.00001743","RA_OF_ASC_NODE":"335.3453","MEAN_ELEMENT_THEORY":"SGP4","TLE_LINE1":"1 46586U 20070BG  22206.79093123  .00001743  00000-0  13586-3 0  9995","TIME_SYSTEM":"UTC","ARG_OF_PERICENTER":"74.8900","OBJECT_NAME":"STARLINK-1737","MEAN_MOTION_DDOT":"0.0000000000000","OBJECT_ID":"2020-070BG","MEAN_MOTION":"15.06400851","REV_AT_EPOCH":"10039","EPOCH":"2022-07-25T18:58:56.458272","GP_ID":"208860360","ECCENTRICITY":"0.00012740","RCS_SIZE":"LARGE","NORAD_CAT_ID":"46586","REF_FRAME":"TEME","INCLINATION":"53.0547","PERIAPSIS":"546.329","SITE":"AFETR","BSTAR":"0.00013586000000","CENTER_NAME":"EARTH","LAUNCH_DATE":"2020-10-06","PERIOD":"95.592","COUNTRY_CODE":"US"},{"GP_ID":"208859108","EPOCH":"2022-07-25T18:32:25.053216","OBJECT_ID":"2020-070BJ","MEAN_MOTION":"15.06394237","REV_AT_EPOCH":"10039","PERIAPSIS":"546.215","INCLINATION":"53.0557","NORAD_CAT_ID":"46588","REF_FRAME":"TEME","RCS_SIZE":"LARGE","ECCENTRICITY":"0.00014670","LAUNCH_DATE":"2020-10-06","CENTER_NAME":"EARTH","BSTAR":"-0.00006296100000","SITE":"AFETR","COUNTRY_CODE":"US","PERIOD":"95.593","SEMIMAJOR_AXIS":"6925.366","EPHEMERIS_TYPE":"0","DECAY_DATE":null,"FILE":"3521711","ELEMENT_SET_NO":"999","APOAPSIS":"548.247","CLASSIFICATION_TYPE":"U","MEAN_MOTION_DOT":"-0.00001219","MEAN_ELEMENT_THEORY":"SGP4","RA_OF_ASC_NODE":"335.4324","OBJECT_TYPE":"PAYLOAD","TLE_LINE2":"2 46588  53.0557 335.4324 0001467  72.5238 287.5911 15.06394237100393","MEAN_ANOMALY":"287.5911","OBJECT_NAME":"STARLINK-1746","ARG_OF_PERICENTER":"72.5238","TIME_SYSTEM":"UTC","TLE_LINE1":"1 46588U 20070BJ  22206.77251219 -.00001219  00000-0 -62961-4 0  9999","MEAN_MOTION_DDOT":"0.0000000000000"},{"MEAN_ANOMALY":"269.7201","MEAN_MOTION_DOT":"-0.00000741","MEAN_ELEMENT_THEORY":"SGP4","RA_OF_ASC_NODE":"335.4704","OBJECT_TYPE":"PAYLOAD","TLE_LINE2":"2 46589  53.0556 335.4704 0001512  90.3961 269.7201 15.06391375100380","FILE":"3521711","APOAPSIS":"548.287","ELEMENT_SET_NO":"999","CLASSIFICATION_TYPE":"U","SEMIMAJOR_AXIS":"6925.375","EPHEMERIS_TYPE":"0","DECAY_DATE":null,"MEAN_MOTION_DDOT":"0.0000000000000","TLE_LINE1":"1 46589U 20070BK  22206.76514342 -.00000741  00000-0 -30844-4 0  9992","OBJECT_NAME":"STARLINK-1749","ARG_OF_PERICENTER":"90.3961","TIME_SYSTEM":"UTC","NORAD_CAT_ID":"46589","REF_FRAME":"TEME","RCS_SIZE":"LARGE","ECCENTRICITY":"0.00015120","PERIAPSIS":"546.193","INCLINATION":"53.0556","EPOCH":"2022-07-25T18:21:48.391488","OBJECT_ID":"2020-070BK","MEAN_MOTION":"15.06391375","REV_AT_EPOCH":"10038","GP_ID":"208859358","PERIOD":"95.593","COUNTRY_CODE":"US","SITE":"AFETR","BSTAR":"-0.00003084400000","LAUNCH_DATE":"2020-10-06","CENTER_NAME":"EARTH"},{"TIME_SYSTEM":"UTC","ARG_OF_PERICENTER":"87.7476","OBJECT_NAME":"STARLINK-1755","TLE_LINE1":"1 46591U 20070BM  22206.75408174  .00000427  00000-0  47559-4 0  9999","MEAN_MOTION_DDOT":"0.0000000000000","DECAY_DATE":null,"EPHEMERIS_TYPE":"0","SEMIMAJOR_AXIS":"6925.375","APOAPSIS":"548.162","ELEMENT_SET_NO":"999","CLASSIFICATION_TYPE":"U","FILE":"3521711","OBJECT_TYPE":"PAYLOAD","TLE_LINE2":"2 46591  53.0553 335.5080 0001331  87.7476 272.3665 15.06391340 99448","RA_OF_ASC_NODE":"335.5080","MEAN_ELEMENT_THEORY":"SGP4","MEAN_MOTION_DOT":"0.00000427","MEAN_ANOMALY":"272.3665","CENTER_NAME":"EARTH","LAUNCH_DATE":"2020-10-06","BSTAR":"0.00004755900000","SITE":"AFETR","COUNTRY_CODE":"US","PERIOD":"95.593","GP_ID":"208860110","REV_AT_EPOCH":"9944","MEAN_MOTION":"15.06391340","OBJECT_ID":"2020-070BM","EPOCH":"2022-07-25T18:05:52.662336","INCLINATION":"53.0553","PERIAPSIS":"546.318","RCS_SIZE":"LARGE","ECCENTRICITY":"0.00013310","REF_FRAME":"TEME","NORAD_CAT_ID":"46591"},{"MEAN_MOTION_DDOT":"0.0000000000000","TIME_SYSTEM":"UTC","ARG_OF_PERICENTER":"62.6539","OBJECT_NAME":"STARLINK-1715","TLE_LINE1":"1 46671U 20073B   22206.71632973  .00003416  00000-0  24814-3 0  9992","OBJECT_TYPE":"PAYLOAD","TLE_LINE2":"2 46671  53.0549  65.9231 0001488  62.6539 297.4602 15.06396790 97653","MEAN_ELEMENT_THEORY":"SGP4","RA_OF_ASC_NODE":"65.9231","MEAN_MOTION_DOT":"0.00003416","MEAN_ANOMALY":"297.4602","DECAY_DATE":null,"SEMIMAJOR_AXIS":"6925.358","EPHEMERIS_TYPE":"0","APOAPSIS":"548.254","ELEMENT_SET_NO":"999","CLASSIFICATION_TYPE":"U","FILE":"3521711","COUNTRY_CODE":"US","PERIOD":"95.592","CENTER_NAME":"EARTH","LAUNCH_DATE":"2020-10-18","SITE":"AFETR","BSTAR":"0.00024814000000","PERIAPSIS":"546.193","INCLINATION":"53.0549","RCS_SIZE":"LARGE","ECCENTRICITY":"0.00014880","REF_FRAME":"TEME","NORAD_CAT_ID":"46671","GP_ID":"208861870","MEAN_MOTION":"15.06396790","REV_AT_EPOCH":"9765","OBJECT_ID":"2020-073B","EPOCH":"2022-07-25T17:11:30.888672"},{"PERIAPSIS":"546.211","INCLINATION":"53.0570","NORAD_CAT_ID":"46672","REF_FRAME":"TEME","ECCENTRICITY":"0.00014830","RCS_SIZE":"LARGE","GP_ID":"208862620","EPOCH":"2022-07-25T20:47:05.328960","OBJECT_ID":"2020-073C","MEAN_MOTION":"15.06391986","REV_AT_EPOCH":"9775","COUNTRY_CODE":"US","PERIOD":"95.593","LAUNCH_DATE":"2020-10-18","CENTER_NAME":"EARTH","SITE":"AFETR","BSTAR":"0.00008073700000","MEAN_MOTION_DOT":"0.00000921","MEAN_ELEMENT_THEORY":"SGP4","RA_OF_ASC_NODE":"60.0143","OBJECT_TYPE":"PAYLOAD","TLE_LINE2":"2 46672  53.0570  60.0143 0001483  69.7241 290.3907 15.06391986 97752","MEAN_ANOMALY":"290.3907","EPHEMERIS_TYPE":"0","SEMIMAJOR_AXIS":"6925.373","DECAY_DATE":null,"FILE":"3521711","ELEMENT_SET_NO":"999","APOAPSIS":"548.265","CLASSIFICATION_TYPE":"U","MEAN_MOTION_DDOT":"0.0000000000000","OBJECT_NAME":"STARLINK-1716","ARG_OF_PERICENTER":"69.7241","TIME_SYSTEM":"UTC","TLE_LINE1":"1 46672U 20073C   22206.86603390  .00000921  00000-0  80737-4 0  9995"},{"RCS_SIZE":"LARGE","ECCENTRICITY":"0.00016250","NORAD_CAT_ID":"46673","REF_FRAME":"TEME","PERIAPSIS":"546.127","INCLINATION":"53.0543","OBJECT_ID":"2020-073D","MEAN_MOTION":"15.06387496","REV_AT_EPOCH":"9753","EPOCH":"2022-07-25T20:21:14.039424","GP_ID":"208861368","PERIOD":"95.593","COUNTRY_CODE":"US","BSTAR":"0.00006386500000","SITE":"AFETR","CENTER_NAME":"EARTH","LAUNCH_DATE":"2020-10-18","MEAN_ANOMALY":"281.6844","TLE_LINE2":"2 46673  53.0543  75.2084 0001625  78.4328 281.6844 15.06387496 97536","OBJECT_TYPE":"PAYLOAD","MEAN_MOTION_DOT":"0.00000670","MEAN_ELEMENT_THEORY":"SGP4","RA_OF_ASC_NODE":"75.2084","APOAPSIS":"548.377","CLASSIFICATION_TYPE":"U","ELEMENT_SET_NO":"999","FILE":"3521711","SEMIMAJOR_AXIS":"6925.387","EPHEMERIS_TYPE":"0","DECAY_DATE":null,"MEAN_MOTION_DDOT":"0.0000000000000","TLE_LINE1":"1 46673U 20073D   22206.84807916  .00000670  00000-0  63865-4 0  9998","TIME_SYSTEM":"UTC","OBJECT_NAME":"STARLINK-1717","ARG_OF_PERICENTER":"78.4328"},{"ECCENTRICITY":"0.00013500","RCS_SIZE":"LARGE","REF_FRAME":"TEME","NORAD_CAT_ID":"46674","PERIAPSIS":"546.269","INCLINATION":"53.0537","REV_AT_EPOCH":"9775","MEAN_MOTION":"15.06403271","OBJECT_ID":"2020-073E","EPOCH":"2022-07-25T21:24:14.676192","GP_ID":"208861618","PERIOD":"95.592","COUNTRY_CODE":"US","BSTAR":"0.00027917000000","SITE":"AFETR","CENTER_NAME":"EARTH","LAUNCH_DATE":"2020-10-18","MEAN_ANOMALY":"285.2472","OBJECT_TYPE":"PAYLOAD","TLE_LINE2":"2 46674  53.0537  59.8927 0001350  74.8666 285.2472 15.06403271 97755","MEAN_ELEMENT_THEORY":"SGP4","RA_OF_ASC_NODE":"59.8927","MEAN_MOTION_DOT":"0.00003880","ELEMENT_SET_NO":"999","APOAPSIS":"548.138","CLASSIFICATION_TYPE":"U","FILE":"3521711","DECAY_DATE":null,"SEMIMAJOR_AXIS":"6925.339","EPHEMERIS_TYPE":"0","MEAN_MOTION_DDOT":"0.0000000000000","TLE_LINE1":"1 46674U 20073E   22206.89183653  .00003880  00000-0  27917-3 0  9992","TIME_SYSTEM":"UTC","OBJECT_NAME":"STARLINK-1718","ARG_OF_PERICENTER":"74.8666"},{"PERIOD":"95.593","COUNTRY_CODE":"US","SITE":"AFETR","BSTAR":"-0.00002258100000","LAUNCH_DATE":"2020-10-18","CENTER_NAME":"EARTH","REF_FRAME":"TEME","NORAD_CAT_ID":"46675","ECCENTRICITY":"0.00014870","RCS_SIZE":"LARGE","INCLINATION":"53.0540","PERIAPSIS":"546.230","EPOCH":"2022-07-25T21:18:57.201984","REV_AT_EPOCH":"9775","MEAN_MOTION":"15.06385002","OBJECT_ID":"2020-073F","GP_ID":"208862370","MEAN_MOTION_DDOT":"0.0000000000000","TLE_LINE1":"1 46675U 20073F   22206.88816206 -.00000618  00000-0 -22581-4 0  9990","ARG_OF_PERICENTER":"65.4905","OBJECT_NAME":"STARLINK-1720","TIME_SYSTEM":"UTC","MEAN_ANOMALY":"294.6239","MEAN_ELEMENT_THEORY":"SGP4","RA_OF_ASC_NODE":"59.9134","MEAN_MOTION_DOT":"-0.00000618","OBJECT_TYPE":"PAYLOAD","TLE_LINE2":"2 46675  53.0540  59.9134 0001487  65.4905 294.6239 15.06385002 97750","FILE":"3521711","ELEMENT_SET_NO":"999","APOAPSIS":"548.289","CLASSIFICATION_TYPE":"U","DECAY_DATE":null,"EPHEMERIS_TYPE":"0","SEMIMAJOR_AXIS":"6925.395"}];
